MALLIGYONG-1            
1 58400U 23179A   24096.53860544  .00004885  00000+0  21835-3 0  9991
2 58400  97.4142 344.4750 0010515 148.3540 211.8331 15.21742165 20678
